[{"OBJECT_NAME":"STARLINK-35260","OBJECT_ID":"2025-216T","EPOCH":"2026-03-09T22:20:01.406976","MEAN_MOTION":15.30258769,"ECCENTRICITY":0.00012728,"INCLINATION":53.1612,"RA_OF_ASC_NODE":331.5433,"ARG_OF_PERICENTER":86.9879,"MEAN_ANOMALY":273.1267,"EPHEMERIS_TYPE":0,"CLASSIFICATION_TYPE":"U","NORAD_CAT_ID":65751,"ELEMENT_SET_NO":999,"REV_AT_EPOCH":2658,"BSTAR":0.0011017405,"MEAN_MOTION_DOT":0.00032473,"MEAN_MOTION_DDOT":0},{"OBJECT_NAME":"FENGYUN 1C DEB","OBJECT_ID":"1999-025DFQ","EPOCH":"2026-03-09T11:05:09.183840","MEAN_MOTION":15.08584918,"ECCENTRICITY":0.01333512,"INCLINATION":99.3393,"RA_OF_ASC_NODE":158.3034,"ARG_OF_PERICENTER":18.9579,"MEAN_ANOMALY":341.654,"EPHEMERIS_TYPE":0,"CLASSIFICATION_TYPE":"U","NORAD_CAT_ID":33679,"ELEMENT_SET_NO":999,"REV_AT_EPOCH":95428,"BSTAR":0.0014594523,"MEAN_MOTION_DOT":0.00028083,"MEAN_MOTION_DDOT":0}]
